ONEWEB-0230             
1 48769U 21045C   26072.56068870  .00000161  00000+0  39477-3 0  9993
2 48769  87.8934 278.3001 0001500  88.9558 271.1745 13.15547919232093
ONEWEB-0237             
1 48770U 21045D   26072.54959380  .00000097  00000+0  22288-3 0  9998
2 48770  87.8935 278.3038 0001706  98.2995 261.8329 13.15547764231814
ONEWEB-0235             
1 48771U 21045E   26072.06789472 -.00000024  00000+0 -98389-4 0  9997
2 48771  87.8943 278.3766 0001914 102.6311 257.5033 13.15548422231743
ONEWEB-0242             
1 48772U 21045F   26072.28972670 -.00000058  00000+0 -18854-3 0  9991
2 48772  87.8943 278.3279 0001602  96.9665 263.1647 13.15548551231819
ONEWEB-0241             
1 48773U 21045G   26072.58128528  .00000000  00000+0 -34132-4 0  9994
2 48773  87.8936 278.2990 0002023  94.1643 265.9719 13.15548321231764
ONEWEB-0243             
1 48774U 21045H   26072.53690943 -.00000045  00000+0 -15234-3 0  9996
2 48774  87.8935 278.3189 0001556 110.0601 250.0697 13.15550253231786
ONEWEB-0222             
1 48775U 21045J   26072.06394125 -.00000072  00000+0 -22423-3 0  9996
2 48775  87.8944 278.3737 0001768  93.3723 266.7610 13.15548626231767
ONEWEB-0244             
1 48776U 21045K   26072.31825310  .00000174  00000+0  42691-3 0  9990
2 48776  87.8943 278.3132 0001646  95.7629 264.3689 13.15547991232363
ONEWEB-0247             
1 48777U 21045L   26072.54326142  .00000049  00000+0  97186-4 0  9996
2 48777  87.8934 278.3124 0001960 116.2606 243.8726 13.15548070231832
ONEWEB-0245             
1 48778U 21045M   26072.08215456  .00000137  00000+0  33113-3 0  9998
2 48778  87.8944 278.3749 0001813  88.2847 271.8491 13.15548572231746
ONEWEB-0229             
1 48779U 21045N   26072.00134464  .00000149  00000+0  36067-3 0  9994
2 48779  87.8944 278.3895 0001557  94.8547 265.2761 13.15548349231765
ONEWEB-0228             
1 48780U 21045P   26072.11082275  .00000073  00000+0  16101-3 0  9993
2 48780  87.8946 278.3550 0001672  94.3044 265.8277 13.15547311231690
ONEWEB-0232             
1 48781U 21045Q   26072.31349559  .00000072  00000+0  15608-3 0  9997
2 48781  87.8954 278.3137 0001625  91.4942 268.6375 13.15546228232040
ONEWEB-0231             
1 48782U 21045R   26072.51948831 -.00000092  00000+0 -27940-3 0  9994
2 48782  87.8936 278.2987 0001838  95.9586 264.1754 13.15548066231764
ONEWEB-0234             
1 48783U 21045S   26072.55735974  .00000146  00000+0  35401-3 0  9990
2 48783  87.8934 278.2690 0002159  71.6550 288.4815 13.15550376231903
ONEWEB-0238             
1 48784U 21045T   26072.55765976  .00000208  00000+0  51883-3 0  9997
2 48784  87.8934 278.2626 0001871  80.2730 279.8611 13.15547258231801
