[{"OBJECT_NAME":"ONEWEB-0230","OBJECT_ID":"2021-045C","EPOCH":"2026-03-13T13:27:23.503680","MEAN_MOTION":13.15547919,"ECCENTRICITY":0.00015007,"INCLINATION":87.8934,"RA_OF_ASC_NODE":278.3001,"ARG_OF_PERICENTER":88.9558,"MEAN_ANOMALY":271.1745,"EPHEMERIS_TYPE":0,"CLASSIFICATION_TYPE":"U","NORAD_CAT_ID":48769,"ELEMENT_SET_NO":999,"REV_AT_EPOCH":23209,"BSTAR":0.00039476942,"MEAN_MOTION_DOT":1.61e-6,"MEAN_MOTION_DDOT":0},{"OBJECT_NAME":"ONEWEB-0237","OBJECT_ID":"2021-045D","EPOCH":"2026-03-13T13:11:24.904320","MEAN_MOTION":13.15547764,"ECCENTRICITY":0.0001706,"INCLINATION":87.8935,"RA_OF_ASC_NODE":278.3038,"ARG_OF_PERICENTER":98.2995,"MEAN_ANOMALY":261.8329,"EPHEMERIS_TYPE":0,"CLASSIFICATION_TYPE":"U","NORAD_CAT_ID":48770,"ELEMENT_SET_NO":999,"REV_AT_EPOCH":23181,"BSTAR":0.00022288006,"MEAN_MOTION_DOT":9.7e-7,"MEAN_MOTION_DDOT":0},{"OBJECT_NAME":"ONEWEB-0235","OBJECT_ID":"2021-045E","EPOCH":"2026-03-13T01:37:46.103808","MEAN_MOTION":13.15548422,"ECCENTRICITY":0.0001914,"INCLINATION":87.8943,"RA_OF_ASC_NODE":278.3766,"ARG_OF_PERICENTER":102.6311,"MEAN_ANOMALY":257.5033,"EPHEMERIS_TYPE":0,"CLASSIFICATION_TYPE":"U","NORAD_CAT_ID":48771,"ELEMENT_SET_NO":999,"REV_AT_EPOCH":23174,"BSTAR":-9.8388789e-5,"MEAN_MOTION_DOT":-2.4e-7,"MEAN_MOTION_DDOT":0},{"OBJECT_NAME":"ONEWEB-0242","OBJECT_ID":"2021-045F","EPOCH":"2026-03-13T06:57:12.386880","MEAN_MOTION":13.15548551,"ECCENTRICITY":0.00016025,"INCLINATION":87.8943,"RA_OF_ASC_NODE":278.3279,"ARG_OF_PERICENTER":96.9665,"MEAN_ANOMALY":263.1647,"EPHEMERIS_TYPE":0,"CLASSIFICATION_TYPE":"U","NORAD_CAT_ID":48772,"ELEMENT_SET_NO":999,"REV_AT_EPOCH":23181,"BSTAR":-0.00018854323,"MEAN_MOTION_DOT":-5.8e-7,"MEAN_MOTION_DDOT":0},{"OBJECT_NAME":"ONEWEB-0241","OBJECT_ID":"2021-045G","EPOCH":"2026-03-13T13:57:03.048192","MEAN_MOTION":13.15548321,"ECCENTRICITY":0.0002023,"INCLINATION":87.8936,"RA_OF_ASC_NODE":278.299,"ARG_OF_PERICENTER":94.1643,"MEAN_ANOMALY":265.9719,"EPHEMERIS_TYPE":0,"CLASSIFICATION_TYPE":"U","NORAD_CAT_ID":48773,"ELEMENT_SET_NO":999,"REV_AT_EPOCH":23176,"BSTAR":-3.4132242e-5,"MEAN_MOTION_DOT":0,"MEAN_MOTION_DDOT":0},{"OBJECT_NAME":"ONEWEB-0243","OBJECT_ID":"2021-045H","EPOCH":"2026-03-13T12:53:08.974752","MEAN_MOTION":13.15550253,"ECCENTRICITY":0.00015566,"INCLINATION":87.8935,"RA_OF_ASC_NODE":278.3189,"ARG_OF_PERICENTER":110.0601,"MEAN_ANOMALY":250.0697,"EPHEMERIS_TYPE":0,"CLASSIFICATION_TYPE":"U","NORAD_CAT_ID":48774,"ELEMENT_SET_NO":999,"REV_AT_EPOCH":23178,"BSTAR":-0.00015234352,"MEAN_MOTION_DOT":-4.5e-7,"MEAN_MOTION_DDOT":0},{"OBJECT_NAME":"ONEWEB-0222","OBJECT_ID":"2021-045J","EPOCH":"2026-03-13T01:32:04.524000","MEAN_MOTION":13.15548626,"ECCENTRICITY":0.00017688,"INCLINATION":87.8944,"RA_OF_ASC_NODE":278.3737,"ARG_OF_PERICENTER":93.3723,"MEAN_ANOMALY":266.761,"EPHEMERIS_TYPE":0,"CLASSIFICATION_TYPE":"U","NORAD_CAT_ID":48775,"ELEMENT_SET_NO":999,"REV_AT_EPOCH":23176,"BSTAR":-0.00022423472,"MEAN_MOTION_DOT":-7.2e-7,"MEAN_MOTION_DDOT":0},{"OBJECT_NAME":"ONEWEB-0244","OBJECT_ID":"2021-045K","EPOCH":"2026-03-13T07:38:17.067840","MEAN_MOTION":13.15547991,"ECCENTRICITY":0.00016468,"INCLINATION":87.8943,"RA_OF_ASC_NODE":278.3132,"ARG_OF_PERICENTER":95.7629,"MEAN_ANOMALY":264.3689,"EPHEMERIS_TYPE":0,"CLASSIFICATION_TYPE":"U","NORAD_CAT_ID":48776,"ELEMENT_SET_NO":999,"REV_AT_EPOCH":23236,"BSTAR":0.00042691029,"MEAN_MOTION_DOT":1.74e-6,"MEAN_MOTION_DDOT":0},{"OBJECT_NAME":"ONEWEB-0247","OBJECT_ID":"2021-045L","EPOCH":"2026-03-13T13:02:17.786688","MEAN_MOTION":13.1554807,"ECCENTRICITY":0.00019602,"INCLINATION":87.8934,"RA_OF_ASC_NODE":278.3124,"ARG_OF_PERICENTER":116.2606,"MEAN_ANOMALY":243.8726,"EPHEMERIS_TYPE":0,"CLASSIFICATION_TYPE":"U","NORAD_CAT_ID":48777,"ELEMENT_SET_NO":999,"REV_AT_EPOCH":23183,"BSTAR":9.7185521e-5,"MEAN_MOTION_DOT":4.9e-7,"MEAN_MOTION_DDOT":0},{"OBJECT_NAME":"ONEWEB-0245","OBJECT_ID":"2021-045M","EPOCH":"2026-03-13T01:58:18.153984","MEAN_MOTION":13.15548572,"ECCENTRICITY":0.00018137,"INCLINATION":87.8944,"RA_OF_ASC_NODE":278.3749,"ARG_OF_PERICENTER":88.2847,"MEAN_ANOMALY":271.8491,"EPHEMERIS_TYPE":0,"CLASSIFICATION_TYPE":"U","NORAD_CAT_ID":48778,"ELEMENT_SET_NO":999,"REV_AT_EPOCH":23174,"BSTAR":0.00033112803,"MEAN_MOTION_DOT":1.37e-6,"MEAN_MOTION_DDOT":0},{"OBJECT_NAME":"ONEWEB-0229","OBJECT_ID":"2021-045N","EPOCH":"2026-03-13T00:01:56.176896","MEAN_MOTION":13.15548349,"ECCENTRICITY":0.00015571,"INCLINATION":87.8944,"RA_OF_ASC_NODE":278.3895,"ARG_OF_PERICENTER":94.8547,"MEAN_ANOMALY":265.2761,"EPHEMERIS_TYPE":0,"CLASSIFICATION_TYPE":"U","NORAD_CAT_ID":48779,"ELEMENT_SET_NO":999,"REV_AT_EPOCH":23176,"BSTAR":0.00036067385,"MEAN_MOTION_DOT":1.49e-6,"MEAN_MOTION_DDOT":0},{"OBJECT_NAME":"ONEWEB-0228","OBJECT_ID":"2021-045P","EPOCH":"2026-03-13T02:39:35.085600","MEAN_MOTION":13.15547311,"ECCENTRICITY":0.00016725,"INCLINATION":87.8946,"RA_OF_ASC_NODE":278.355,"ARG_OF_PERICENTER":94.3044,"MEAN_ANOMALY":265.8277,"EPHEMERIS_TYPE":0,"CLASSIFICATION_TYPE":"U","NORAD_CAT_ID":48780,"ELEMENT_SET_NO":999,"REV_AT_EPOCH":23169,"BSTAR":0.00016100715,"MEAN_MOTION_DOT":7.3e-7,"MEAN_MOTION_DDOT":0},{"OBJECT_NAME":"ONEWEB-0232","OBJECT_ID":"2021-045Q","EPOCH":"2026-03-13T07:31:26.018976","MEAN_MOTION":13.15546228,"ECCENTRICITY":0.00016253,"INCLINATION":87.8954,"RA_OF_ASC_NODE":278.3137,"ARG_OF_PERICENTER":91.4942,"MEAN_ANOMALY":268.6375,"EPHEMERIS_TYPE":0,"CLASSIFICATION_TYPE":"U","NORAD_CAT_ID":48781,"ELEMENT_SET_NO":999,"REV_AT_EPOCH":23204,"BSTAR":0.00015608456,"MEAN_MOTION_DOT":7.2e-7,"MEAN_MOTION_DDOT":0},{"OBJECT_NAME":"ONEWEB-0231","OBJECT_ID":"2021-045R","EPOCH":"2026-03-13T12:28:03.789984","MEAN_MOTION":13.15548066,"ECCENTRICITY":0.00018387,"INCLINATION":87.8936,"RA_OF_ASC_NODE":278.2987,"ARG_OF_PERICENTER":95.9586,"MEAN_ANOMALY":264.1754,"EPHEMERIS_TYPE":0,"CLASSIFICATION_TYPE":"U","NORAD_CAT_ID":48782,"ELEMENT_SET_NO":999,"REV_AT_EPOCH":23176,"BSTAR":-0.00027940389,"MEAN_MOTION_DOT":-9.2e-7,"MEAN_MOTION_DDOT":0},{"OBJECT_NAME":"ONEWEB-0234","OBJECT_ID":"2021-045S","EPOCH":"2026-03-13T13:22:35.881536","MEAN_MOTION":13.15550376,"ECCENTRICITY":0.00021593,"INCLINATION":87.8934,"RA_OF_ASC_NODE":278.269,"ARG_OF_PERICENTER":71.655,"MEAN_ANOMALY":288.4815,"EPHEMERIS_TYPE":0,"CLASSIFICATION_TYPE":"U","NORAD_CAT_ID":48783,"ELEMENT_SET_NO":999,"REV_AT_EPOCH":23190,"BSTAR":0.00035400532,"MEAN_MOTION_DOT":1.46e-6,"MEAN_MOTION_DDOT":0},{"OBJECT_NAME":"ONEWEB-0238","OBJECT_ID":"2021-045T","EPOCH":"2026-03-13T13:23:01.803264","MEAN_MOTION":13.15547258,"ECCENTRICITY":0.00018716,"INCLINATION":87.8934,"RA_OF_ASC_NODE":278.2626,"ARG_OF_PERICENTER":80.273,"MEAN_ANOMALY":279.8611,"EPHEMERIS_TYPE":0,"CLASSIFICATION_TYPE":"U","NORAD_CAT_ID":48784,"ELEMENT_SET_NO":999,"REV_AT_EPOCH":23180,"BSTAR":0.00051883009,"MEAN_MOTION_DOT":2.08e-6,"MEAN_MOTION_DDOT":0}]
